ATLAS 5 CENTAUR DEB     
1 44661U 18079X   26073.39551704 -.00000103  00000+0  00000+0 0  9991
2 44661  12.9002  68.6635 4633095 245.2594  60.3951  1.72653385 46961
ATLAS 5 CENTAUR DEB     
1 44665U 18079AB  26072.93921588 -.00000084  00000+0  00000+0 0  9993
2 44665  12.5585  80.1451 4660248 222.8328  89.6694  1.68623599 41768
ATLAS 5 CENTAUR DEB     
1 44673U 18079AK  26072.77086030 -.00000140  00000+0  00000+0 0  9991
2 44673  13.2697  51.2664 4707490 280.1568  31.7048  1.77547443 48174
ATLAS 5 CENTAUR DEB     
1 44679U 18079AR  26073.35290154 -.00000141  00000+0  00000+0 0  9997
2 44679  13.3322  46.9390 4692714 288.7443  27.0790  1.79403271 44979
ATLAS 5 CENTAUR DEB     
1 44680U 18079AS  26073.14170564 -.00000128  00000+0  00000+0 0  9993
2 44680  13.2299  56.4091 4693169 268.6653  39.2423  1.75589402 43796
ATLAS 5 CENTAUR DEB     
1 44685U 18079AX  26071.34918860 -.00000096  00000+0  00000+0 0  9991
2 44685  12.4694  81.4696 4575765 221.7830  92.4487  1.69263434 41862
ATLAS 5 CENTAUR DEB     
1 44686U 18079AY  26073.43052096 -.00000085  00000+0  00000+0 0  9992
2 44686  12.5025  80.1571 4662530 225.2586  85.8413  1.69098611 41974
ATLAS 5 CENTAUR DEB     
1 44693U 18079BF  26073.24307133 -.00000137  00000+0  00000+0 0  9992
2 44693  13.3989  48.6044 4683992 283.5972  29.9376  1.78463850 45180
ATLAS 5 CENTAUR DEB     
1 44694U 18079BG  26073.02821064 -.00000140  00000+0  00000+0 0  9997
2 44694  13.5226  47.0807 4745643 283.8769  29.2697  1.77433703 44873
BEIDOU-3 IGSO-3         
1 44709U 19073A   26069.98346678 -.00000143  00000+0  00000+0 0  9995
2 44709  54.9673 281.9576 0040728 188.7089 171.2538  1.00267242 23477
TIBA-1                  
1 44800U 19080A   26073.57556882  .00000155  00000+0  00000+0 0  9997
2 44800   0.0590   7.7112 0002118 346.5904  60.5728  1.00273484 23106
INMARSAT GX5            
1 44801U 19080B   26073.57071546  .00000074  00000+0  00000+0 0  9997
2 44801   0.0509 352.4930 0002148  10.5204  25.6281  1.00270968  5839
ATLAS 5 CENTAUR DEB     
1 44845U 14055CD  26073.36065453 -.00000088  00000+0  00000+0 0  9995
2 44845  20.2947 137.0238 5010620 175.7256 191.0922  1.84918514 42676
JCSAT-18 (KACIFIC 1)    
1 44868U 19091A   26073.46919825 -.00000202  00000+0  00000+0 0  9995
2 44868   0.0408 315.9022 0000357 112.3220  62.7590  1.00271070 23060
ELEKTRO-L 3             
1 44903U 19095A   26072.58515229 -.00000096  00000+0  00000+0 0  9992
2 44903   0.0380 340.0026 0001508   9.4736 108.2976  1.00270722 22751
SHIJIAN-20 (SJ-20)      
1 44910U 19097A   26071.85625134 -.00000002  00000+0  00000+0 0  9995
2 44910   4.6699  76.2395 0001536  16.3150  96.4860  1.00082407 22736
TJS-5                   
1 44978U 20002A   26071.83844752 -.00000342  00000+0  00000+0 0  9991
2 44978   0.2588 269.6650 0004599 128.5651 181.5791  1.00268883 22738
