[{"OBJECT_NAME":"ATLAS 5 CENTAUR DEB","OBJECT_ID":"2018-079X","EPOCH":"2026-03-14T09:29:32.672256","MEAN_MOTION":1.72653385,"ECCENTRICITY":0.46330956,"INCLINATION":12.9002,"RA_OF_ASC_NODE":68.6635,"ARG_OF_PERICENTER":245.2594,"MEAN_ANOMALY":60.3951,"EPHEMERIS_TYPE":0,"CLASSIFICATION_TYPE":"U","NORAD_CAT_ID":44661,"ELEMENT_SET_NO":999,"REV_AT_EPOCH":4696,"BSTAR":0,"MEAN_MOTION_DOT":-1.03e-6,"MEAN_MOTION_DDOT":0},{"OBJECT_NAME":"ATLAS 5 CENTAUR DEB","OBJECT_ID":"2018-079AB","EPOCH":"2026-03-13T22:32:28.252032","MEAN_MOTION":1.68623599,"ECCENTRICITY":0.46602484,"INCLINATION":12.5585,"RA_OF_ASC_NODE":80.1451,"ARG_OF_PERICENTER":222.8328,"MEAN_ANOMALY":89.6694,"EPHEMERIS_TYPE":0,"CLASSIFICATION_TYPE":"U","NORAD_CAT_ID":44665,"ELEMENT_SET_NO":999,"REV_AT_EPOCH":4176,"BSTAR":0,"MEAN_MOTION_DOT":-8.4e-7,"MEAN_MOTION_DDOT":0},{"OBJECT_NAME":"ATLAS 5 CENTAUR DEB","OBJECT_ID":"2018-079AK","EPOCH":"2026-03-13T18:30:02.329920","MEAN_MOTION":1.77547443,"ECCENTRICITY":0.47074905,"INCLINATION":13.2697,"RA_OF_ASC_NODE":51.2664,"ARG_OF_PERICENTER":280.1568,"MEAN_ANOMALY":31.7048,"EPHEMERIS_TYPE":0,"CLASSIFICATION_TYPE":"U","NORAD_CAT_ID":44673,"ELEMENT_SET_NO":999,"REV_AT_EPOCH":4817,"BSTAR":0,"MEAN_MOTION_DOT":-1.4e-6,"MEAN_MOTION_DDOT":0},{"OBJECT_NAME":"ATLAS 5 CENTAUR DEB","OBJECT_ID":"2018-079AR","EPOCH":"2026-03-14T08:28:10.693056","MEAN_MOTION":1.79403271,"ECCENTRICITY":0.46927144,"INCLINATION":13.3322,"RA_OF_ASC_NODE":46.939,"ARG_OF_PERICENTER":288.7443,"MEAN_ANOMALY":27.079,"EPHEMERIS_TYPE":0,"CLASSIFICATION_TYPE":"U","NORAD_CAT_ID":44679,"ELEMENT_SET_NO":999,"REV_AT_EPOCH":4497,"BSTAR":0,"MEAN_MOTION_DOT":-1.41e-6,"MEAN_MOTION_DDOT":0},{"OBJECT_NAME":"ATLAS 5 CENTAUR DEB","OBJECT_ID":"2018-079AS","EPOCH":"2026-03-14T03:24:03.367296","MEAN_MOTION":1.75589402,"ECCENTRICITY":0.46931693,"INCLINATION":13.2299,"RA_OF_ASC_NODE":56.4091,"ARG_OF_PERICENTER":268.6653,"MEAN_ANOMALY":39.2423,"EPHEMERIS_TYPE":0,"CLASSIFICATION_TYPE":"U","NORAD_CAT_ID":44680,"ELEMENT_SET_NO":999,"REV_AT_EPOCH":4379,"BSTAR":0,"MEAN_MOTION_DOT":-1.28e-6,"MEAN_MOTION_DDOT":0},{"OBJECT_NAME":"ATLAS 5 CENTAUR DEB","OBJECT_ID":"2018-079AX","EPOCH":"2026-03-12T08:22:49.895040","MEAN_MOTION":1.69263434,"ECCENTRICITY":0.4575765,"INCLINATION":12.4694,"RA_OF_ASC_NODE":81.4696,"ARG_OF_PERICENTER":221.783,"MEAN_ANOMALY":92.4487,"EPHEMERIS_TYPE":0,"CLASSIFICATION_TYPE":"U","NORAD_CAT_ID":44685,"ELEMENT_SET_NO":999,"REV_AT_EPOCH":4186,"BSTAR":0,"MEAN_MOTION_DOT":-9.6e-7,"MEAN_MOTION_DDOT":0},{"OBJECT_NAME":"ATLAS 5 CENTAUR DEB","OBJECT_ID":"2018-079AY","EPOCH":"2026-03-14T10:19:57.010944","MEAN_MOTION":1.69098611,"ECCENTRICITY":0.46625308,"INCLINATION":12.5025,"RA_OF_ASC_NODE":80.1571,"ARG_OF_PERICENTER":225.2586,"MEAN_ANOMALY":85.8413,"EPHEMERIS_TYPE":0,"CLASSIFICATION_TYPE":"U","NORAD_CAT_ID":44686,"ELEMENT_SET_NO":999,"REV_AT_EPOCH":4197,"BSTAR":0,"MEAN_MOTION_DOT":-8.5e-7,"MEAN_MOTION_DDOT":0},{"OBJECT_NAME":"ATLAS 5 CENTAUR DEB","OBJECT_ID":"2018-079BF","EPOCH":"2026-03-14T05:50:01.362912","MEAN_MOTION":1.7846385,"ECCENTRICITY":0.46839928,"INCLINATION":13.3989,"RA_OF_ASC_NODE":48.6044,"ARG_OF_PERICENTER":283.5972,"MEAN_ANOMALY":29.9376,"EPHEMERIS_TYPE":0,"CLASSIFICATION_TYPE":"U","NORAD_CAT_ID":44693,"ELEMENT_SET_NO":999,"REV_AT_EPOCH":4518,"BSTAR":0,"MEAN_MOTION_DOT":-1.37e-6,"MEAN_MOTION_DDOT":0},{"OBJECT_NAME":"ATLAS 5 CENTAUR DEB","OBJECT_ID":"2018-079BG","EPOCH":"2026-03-14T00:40:37.399296","MEAN_MOTION":1.77433703,"ECCENTRICITY":0.47456433,"INCLINATION":13.5226,"RA_OF_ASC_NODE":47.0807,"ARG_OF_PERICENTER":283.8769,"MEAN_ANOMALY":29.2697,"EPHEMERIS_TYPE":0,"CLASSIFICATION_TYPE":"U","NORAD_CAT_ID":44694,"ELEMENT_SET_NO":999,"REV_AT_EPOCH":4487,"BSTAR":0,"MEAN_MOTION_DOT":-1.4e-6,"MEAN_MOTION_DDOT":0},{"OBJECT_NAME":"BEIDOU-3 IGSO-3","OBJECT_ID":"2019-073A","EPOCH":"2026-03-10T23:36:11.529792","MEAN_MOTION":1.00267242,"ECCENTRICITY":0.00407281,"INCLINATION":54.9673,"RA_OF_ASC_NODE":281.9576,"ARG_OF_PERICENTER":188.7089,"MEAN_ANOMALY":171.2538,"EPHEMERIS_TYPE":0,"CLASSIFICATION_TYPE":"U","NORAD_CAT_ID":44709,"ELEMENT_SET_NO":999,"REV_AT_EPOCH":2347,"BSTAR":0,"MEAN_MOTION_DOT":-1.43e-6,"MEAN_MOTION_DDOT":0},{"OBJECT_NAME":"TIBA-1","OBJECT_ID":"2019-080A","EPOCH":"2026-03-14T13:48:49.146048","MEAN_MOTION":1.00273484,"ECCENTRICITY":0.00021188,"INCLINATION":0.059,"RA_OF_ASC_NODE":7.7112,"ARG_OF_PERICENTER":346.5904,"MEAN_ANOMALY":60.5728,"EPHEMERIS_TYPE":0,"CLASSIFICATION_TYPE":"U","NORAD_CAT_ID":44800,"ELEMENT_SET_NO":999,"REV_AT_EPOCH":2310,"BSTAR":0,"MEAN_MOTION_DOT":1.55e-6,"MEAN_MOTION_DDOT":0},{"OBJECT_NAME":"INMARSAT GX5","OBJECT_ID":"2019-080B","EPOCH":"2026-03-14T13:41:49.815744","MEAN_MOTION":1.00270968,"ECCENTRICITY":0.00021487,"INCLINATION":0.0509,"RA_OF_ASC_NODE":352.493,"ARG_OF_PERICENTER":10.5204,"MEAN_ANOMALY":25.6281,"EPHEMERIS_TYPE":0,"CLASSIFICATION_TYPE":"U","NORAD_CAT_ID":44801,"ELEMENT_SET_NO":999,"REV_AT_EPOCH":583,"BSTAR":0,"MEAN_MOTION_DOT":7.4e-7,"MEAN_MOTION_DDOT":0},{"OBJECT_NAME":"ATLAS 5 CENTAUR DEB","OBJECT_ID":"2014-055CD","EPOCH":"2026-03-14T08:39:20.551392","MEAN_MOTION":1.84918514,"ECCENTRICITY":0.50106202,"INCLINATION":20.2947,"RA_OF_ASC_NODE":137.0238,"ARG_OF_PERICENTER":175.7256,"MEAN_ANOMALY":191.0922,"EPHEMERIS_TYPE":0,"CLASSIFICATION_TYPE":"U","NORAD_CAT_ID":44845,"ELEMENT_SET_NO":999,"REV_AT_EPOCH":4267,"BSTAR":0,"MEAN_MOTION_DOT":-8.8e-7,"MEAN_MOTION_DDOT":0},{"OBJECT_NAME":"JCSAT-18 (KACIFIC 1)","OBJECT_ID":"2019-091A","EPOCH":"2026-03-14T11:15:38.728800","MEAN_MOTION":1.0027107,"ECCENTRICITY":3.573e-5,"INCLINATION":0.0408,"RA_OF_ASC_NODE":315.9022,"ARG_OF_PERICENTER":112.322,"MEAN_ANOMALY":62.759,"EPHEMERIS_TYPE":0,"CLASSIFICATION_TYPE":"U","NORAD_CAT_ID":44868,"ELEMENT_SET_NO":999,"REV_AT_EPOCH":2306,"BSTAR":0,"MEAN_MOTION_DOT":-2.02e-6,"MEAN_MOTION_DDOT":0},{"OBJECT_NAME":"ELEKTRO-L 3","OBJECT_ID":"2019-095A","EPOCH":"2026-03-13T14:02:37.157856","MEAN_MOTION":1.00270722,"ECCENTRICITY":0.00015083,"INCLINATION":0.038,"RA_OF_ASC_NODE":340.0026,"ARG_OF_PERICENTER":9.4736,"MEAN_ANOMALY":108.2976,"EPHEMERIS_TYPE":0,"CLASSIFICATION_TYPE":"U","NORAD_CAT_ID":44903,"ELEMENT_SET_NO":999,"REV_AT_EPOCH":2275,"BSTAR":0,"MEAN_MOTION_DOT":-9.6e-7,"MEAN_MOTION_DDOT":0},{"OBJECT_NAME":"SHIJIAN-20 (SJ-20)","OBJECT_ID":"2019-097A","EPOCH":"2026-03-12T20:33:00.115776","MEAN_MOTION":1.00082407,"ECCENTRICITY":0.0001536,"INCLINATION":4.6699,"RA_OF_ASC_NODE":76.2395,"ARG_OF_PERICENTER":16.315,"MEAN_ANOMALY":96.486,"EPHEMERIS_TYPE":0,"CLASSIFICATION_TYPE":"U","NORAD_CAT_ID":44910,"ELEMENT_SET_NO":999,"REV_AT_EPOCH":2273,"BSTAR":0,"MEAN_MOTION_DOT":-2.0e-8,"MEAN_MOTION_DDOT":0},{"OBJECT_NAME":"TJS-5","OBJECT_ID":"2020-002A","EPOCH":"2026-03-12T20:07:21.865728","MEAN_MOTION":1.00268883,"ECCENTRICITY":0.0004599,"INCLINATION":0.2588,"RA_OF_ASC_NODE":269.665,"ARG_OF_PERICENTER":128.5651,"MEAN_ANOMALY":181.5791,"EPHEMERIS_TYPE":0,"CLASSIFICATION_TYPE":"U","NORAD_CAT_ID":44978,"ELEMENT_SET_NO":999,"REV_AT_EPOCH":2273,"BSTAR":0,"MEAN_MOTION_DOT":-3.42e-6,"MEAN_MOTION_DDOT":0}]
